CSS (TIANHE)            
1 48274U 21035A   24201.42901488  .00025768  00000+0  26635-3 0  9993
2 48274  41.4670 246.2019 0001975  91.4889 268.6177 15.64146512184144
